{
  "municipalities": [
    {
      "code": "011002",
      "name_kanji": "札幌市",
      "name_kana": "さっぽろし",
      "name_romaji": "Sapporo Shi",
      "lat": 43.05,
      "lon": 141.35,
      "prefecture_kanji": "北海道",
      "prefecture_kana": "ほっかいどう",
      "prefecture_romaji": "Hokkaido"
    },
    {
      "code": "012025",
      "name_kanji": "函館市",
      "name_kana": "はこだてし",
      "name_romaji": "Hakodate Shi",
      "lat": 41.7666666667,
      "lon": 140.7166666667,
      "prefecture_kanji": "北海道",
      "prefecture_kana": "ほっかいどう",
      "prefecture_romaji": "Hokkaido"
    },
    {
      "code": "012033",
      "name_kanji": "小樽市",
      "name_kana": "おたるし",
      "name_romaji": "Otaru Shi",
      "lat": 43.1833333333,
      "lon": 140.9833333333,
      "prefecture_kanji": "北海道",
      "prefecture_kana": "ほっかいどう",
      "prefecture_romaji": "Hokkaido"
    },
    {
      "code": "012041",
      "name_kanji": "旭川市",
      "name_kana": "あさひかわし",
      "name_romaji": "Asahikawa Shi",
      "lat": 43.7666666667,
      "lon": 142.35,
      "prefecture_kanji": "北海道",
      "prefecture_kana": "ほっかいどう",
      "prefecture_romaji": "Hokkaido"
    },
    {
      "code": "012050",
      "name_kanji": "室蘭市",
      "name_kana": "むろらんし",
      "name_romaji": "Muroran Shi",
      "lat": 42.3,
      "lon": 140.9666666667,
      "prefecture_kanji": "北海道",
      "prefecture_kana": "ほっかいどう",
      "prefecture_romaji": "Hokkaido"
    },
    {
      "code": "012068",
      "name_kanji": "釧路市",
      "name_kana": "くしろし",
      "name_romaji": "Kushiro Shi",
      "lat": 42.9833333333,
      "lon": 144.3666666667,
      "prefecture_kanji": "北海道",
      "prefecture_kana": "ほっかいどう",
      "prefecture_romaji": "Hokkaido"
    },
    {
      "code": "012076",
      "name_kanji": "帯広市",
      "name_kana": "おびひろし",
      "name_romaji": "Obihiro Shi",
      "lat": 42.9166666667,
      "lon": 143.1833333333,
      "prefecture_kanji": "北海道",
      "prefecture_kana": "ほっかいどう",
      "prefecture_romaji": "Hokkaido"
    },
    {
      "code": "012084",
      "name_kanji": "北見市",
      "name_kana": "きたみし",
      "name_romaji": "Kitami Shi",
      "lat": 43.8,
      "lon": 143.8833333333,
      "prefecture_kanji": "北海道",
      "prefecture_kana": "ほっかいどう",
      "prefecture_romaji": "Hokkaido"
    },
    {
      "code": "012092",
      "name_kanji": "夕張市",
      "name_kana": "ゆうばりし",
      "name_romaji": "Yubari Shi",
      "lat": 43.05,
      "lon": 141.9666666667,
      "prefecture_kanji": "北海道",
      "prefecture_kana": "ほっかいどう",
      "prefecture_romaji": "Hokkaido"
    },
    {
      "code": "012106",
      "name_kanji": "岩見沢市",
      "name_kana": "いわみざわし",
      "name_romaji": "Iwamizawa Shi",
      "lat": 43.1833333333,
      "lon": 141.7666666667,
      "prefecture_kanji": "北海道",
      "prefecture_kana": "ほっかいどう",
      "prefecture_romaji": "Hokkaido"
    },
    {
      "code": "012114",
      "name_kanji": "網走市",
      "name_kana": "あばしりし",
      "name_romaji": "Abashiri Shi",
      "lat": 44.0166666667,
      "lon": 144.2666666667,
      "prefecture_kanji": "北海道",
      "prefecture_kana": "ほっかいどう",
      "prefecture_romaji": "Hokkaido"
    },
    {
      "code": "012122",
      "name_kanji": "留萌市",
      "name_kana": "るもいし",
      "name_romaji": "Rumoi Shi",
      "lat": 43.9333333333,
      "lon": 141.6333333333,
      "prefecture_kanji": "北海道",
      "prefecture_kana": "ほっかいどう",
      "prefecture_romaji": "Hokkaido"
    },
    {
      "code": "012131",
      "name_kanji": "苫小牧市",
      "name_kana": "とまこまいし",
      "name_romaji": "Tomakomai Shi",
      "lat": 42.6333333333,
      "lon": 141.6,
      "prefecture_kanji": "北海道",
      "prefecture_kana": "ほっかいどう",
      "prefecture_romaji": "Hokkaido"
    },
    {
      "code": "012149",
      "name_kanji": "稚内市",
      "name_kana": "わっかないし",
      "name_romaji": "Wakkanai Shi",
      "lat": 45.4,
      "lon": 141.6666666667,
      "prefecture_kanji": "北海道",
      "prefecture_kana": "ほっかいどう",
      "prefecture_romaji": "Hokkaido"
    },
    {
      "code": "012157",
      "name_kanji": "美唄市",
      "name_kana": "びばいし",
      "name_romaji": "Bibai Shi",
      "lat": 43.3166666667,
      "lon": 141.85,
      "prefecture_kanji": "北海道",
      "prefecture_kana": "ほっかいどう",
      "prefecture_romaji": "Hokkaido"
    },
    {
      "code": "012165",
      "name_kanji": "芦別市",
      "name_kana": "あしべつし",
      "name_romaji": "Ashibetsu Shi",
      "lat": 43.5166666667,
      "lon": 142.1833333333,
      "prefecture_kanji": "北海道",
      "prefecture_kana": "ほっかいどう",
      "prefecture_romaji": "Hokkaido"
    },
    {
      "code": "012173",
      "name_kanji": "江別市",
      "name_kana": "えべつし",
      "name_romaji": "Ebetsu Shi",
      "lat": 43.1,
      "lon": 141.5333333333,
      "prefecture_kanji": "北海道",
      "prefecture_kana": "ほっかいどう",
      "prefecture_romaji": "Hokkaido"
    },
    {
      "code": "012181",
      "name_kanji": "赤平市",
      "name_kana": "あかびらし",
      "name_romaji": "Akabira Shi",
      "lat": 43.55,
      "lon": 142.0333333333,
      "prefecture_kanji": "北海道",
      "prefecture_kana": "ほっかいどう",
      "prefecture_romaji": "Hokkaido"
    },
    {
      "code": "012190",
      "name_kanji": "紋別市",
      "name_kana": "もんべつし",
      "name_romaji": "Monbetsu Shi",
      "lat": 44.35,
      "lon": 143.35,
      "prefecture_kanji": "北海道",
      "prefecture_kana": "ほっかいどう",
      "prefecture_romaji": "Hokkaido"
    },
    {
      "code": "012203",
      "name_kanji": "士別市",
      "name_kana": "しべつし",
      "name_romaji": "Shibetsu Shi",
      "lat": 44.1666666667,
      "lon": 142.4,
      "prefecture_kanji": "北海道",
      "prefecture_kana": "ほっかいどう",
      "prefecture_romaji": "Hokkaido"
    },
    {
      "code": "012211",
      "name_kanji": "名寄市",
      "name_kana": "なよろし",
      "name_romaji": "Nayoro Shi",
      "lat": 44.35,
      "lon": 142.45,
      "prefecture_kanji": "北海道",
      "prefecture_kana": "ほっかいどう",
      "prefecture_romaji": "Hokkaido"
    },
    {
      "code": "012220",
      "name_kanji": "三笠市",
      "name_kana": "みかさし",
      "name_romaji": "Mikasa Shi",
      "lat": 43.2333333333,
      "lon": 141.8666666667,
      "prefecture_kanji": "北海道",
      "prefecture_kana": "ほっかいどう",
      "prefecture_romaji": "Hokkaido"
    },
    {
      "code": "012238",
      "name_kanji": "根室市",
      "name_kana": "ねむろし",
      "name_romaji": "Nemuro Shi",
      "lat": 43.3166666667,
      "lon": 145.5666666667,
      "prefecture_kanji": "北海道",
      "prefecture_kana": "ほっかいどう",
      "prefecture_romaji": "Hokkaido"
    },
    {
      "code": "012246",
      "name_kanji": "千歳市",
      "name_kana": "ちとせし",
      "name_romaji": "Chitose Shi",
      "lat": 42.8166666667,
      "lon": 141.65,
      "prefecture_kanji": "北海道",
      "prefecture_kana": "ほっかいどう",
      "prefecture_romaji": "Hokkaido"
    },
    {
      "code": "012254",
      "name_kanji": "滝川市",
      "name_kana": "たきかわし",
      "name_romaji": "Takikawa Shi",
      "lat": 43.55,
      "lon": 141.9,
      "prefecture_kanji": "北海道",
      "prefecture_kana": "ほっかいどう",
      "prefecture_romaji": "Hokkaido"
    },
    {
      "code": "012262",
      "name_kanji": "砂川市",
      "name_kana": "すながわし",
      "name_romaji": "Sunagawa Shi",
      "lat": 43.4833333333,
      "lon": 141.9,
      "prefecture_kanji": "北海道",
      "prefecture_kana": "ほっかいどう",
      "prefecture_romaji": "Hokkaido"
    }
  ],
  "bridges": [{
    "name_kanji": "八ヶ山1号橋",
    "bridge_no": "2925",
    "management_no": "1050150511",
    "name_kana": "ｶﾐﾑﾗ9ｺﾞｳｷｮｳ",
    "condition": "開水路:排水路",
    "last_inspection_date": "2016-03-31"
  }, {
    "name_kanji": "八ヶ山1号橋",
    "bridge_no": "2925",
    "management_no": "1050150511",
    "name_kana": "ｶﾐﾑﾗ9ｺﾞｳｷｮｳ",
    "condition": "開水路:排水路",
    "last_inspection_date": "2016-03-31"
  }]
}